{"type": "FeatureCollection", "features": [{"type": "Feature", "properties": {"norad_id": 22675, "name": "COSMOS 2251", "group": "cosmos-2251-debris", "lat": -62.710493802488216, "lon": -177.76703066591773, "alt_km": 804.329457013162, "timestamp": "2025-12-05T19:30:25.959212+00:00", "meta": {"OBJECT_NAME": "COSMOS 2251", "OBJECT_ID": "1993-036A", "EPOCH": "2025-12-05T06:37:47.574048", "MEAN_MOTION": 14.33201224, "ECCENTRICITY": 0.00237308, "INCLINATION": 74.0394, "RA_OF_ASC_NODE": 329.5212, "ARG_OF_PERICENTER": 54.1188, "MEAN_ANOMALY": 306.2162, "EPHEMERIS_TYPE": 0, "CLASSIFICATION_TYPE": "U", "NORAD_CAT_ID": 22675, "ELEMENT_SET_NO": 999, "REV_AT_EPOCH": 69666, "BSTAR": 9.3399638e-05, "MEAN_MOTION_DOT": 2.32e-06, "MEAN_MOTION_DDOT": 0}, "tle": {"line1": "1 22675U 93036A   25339.27624507  .00000232  00000+0  93400-4 0  9994", "line2": "2 22675  74.0394 329.5212 0023730  54.1188 306.2162 14.33201224696662"}}, "geometry": {"type": "Point", "coordinates": [-177.76703066591773, -62.710493802488216]}}, {"type": "Feature", "properties": {"norad_id": 33757, "name": "COSMOS 2251 DEB", "group": "cosmos-2251-debris", "lat": -54.841112277341445, "lon": -47.721147683100895, "alt_km": 782.7627545885252, "timestamp": "2025-12-05T19:30:25.959239+00:00", "meta": {"OBJECT_NAME": "COSMOS 2251 DEB", "OBJECT_ID": "1993-036E", "EPOCH": "2025-12-05T06:51:27.033120", "MEAN_MOTION": 14.32578022, "ECCENTRICITY": 0.00149649, "INCLINATION": 74.0367, "RA_OF_ASC_NODE": 337.2186, "ARG_OF_PERICENTER": 351.9316, "MEAN_ANOMALY": 112.8461, "EPHEMERIS_TYPE": 0, "CLASSIFICATION_TYPE": "U", "NORAD_CAT_ID": 33757, "ELEMENT_SET_NO": 999, "REV_AT_EPOCH": 87889, "BSTAR": 8.167443e-05, "MEAN_MOTION_DOT": 1.96e-06, "MEAN_MOTION_DDOT": 0}, "tle": {"line1": "1 33757U 93036E   25339.28572955  .00000196  00000+0  81674-4 0  9996", "line2": "2 33757  74.0367 337.2186 0014964 351.9316 112.8461 14.32578022878893"}}, "geometry": {"type": "Point", "coordinates": [-47.721147683100895, -54.841112277341445]}}, {"type": "Feature", "properties": {"norad_id": 33758, "name": "COSMOS 2251 DEB", "group": "cosmos-2251-debris", "lat": 43.321609927808915, "lon": 32.407175168445264, "alt_km": 728.4746050139693, "timestamp": "2025-12-05T19:30:25.959254+00:00", "meta": {"OBJECT_NAME": "COSMOS 2251 DEB", "OBJECT_ID": "1993-036F", "EPOCH": "2025-12-05T04:34:40.872576", "MEAN_MOTION": 14.51519877, "ECCENTRICITY": 0.00175561, "INCLINATION": 74.0288, "RA_OF_ASC_NODE": 229.2474, "ARG_OF_PERICENTER": 296.6032, "MEAN_ANOMALY": 188.6657, "EPHEMERIS_TYPE": 0, "CLASSIFICATION_TYPE": "U", "NORAD_CAT_ID": 33758, "ELEMENT_SET_NO": 999, "REV_AT_EPOCH": 88195, "BSTAR": 0.0017448831, "MEAN_MOTION_DOT": 6.971e-05, "MEAN_MOTION_DDOT": 0}, "tle": {"line1": "1 33758U 93036F   25339.19075084  .00006971  00000+0  17449-2 0  9992", "line2": "2 33758  74.0288 229.2474 0017556 296.6032 188.6657 14.51519877881959"}}, "geometry": {"type": "Point", "coordinates": [32.407175168445264, 43.321609927808915]}}, {"type": "Feature", "properties": {"norad_id": 33760, "name": "COSMOS 2251 DEB", "group": "cosmos-2251-debris", "lat": 62.65428040260072, "lon": 80.55005840404809, "alt_km": 763.4480556811241, "timestamp": "2025-12-05T19:30:25.959266+00:00", "meta": {"OBJECT_NAME": "COSMOS 2251 DEB", "OBJECT_ID": "1993-036H", "EPOCH": "2025-12-05T07:58:55.057152", "MEAN_MOTION": 14.35664545, "ECCENTRICITY": 0.00195579, "INCLINATION": 74.0317, "RA_OF_ASC_NODE": 295.0504, "ARG_OF_PERICENTER": 35.5072, "MEAN_ANOMALY": 115.7617, "EPHEMERIS_TYPE": 0, "CLASSIFICATION_TYPE": "U", "NORAD_CAT_ID": 33760, "ELEMENT_SET_NO": 999, "REV_AT_EPOCH": 88018, "BSTAR": 0.00020515584, "MEAN_MOTION_DOT": 5.67e-06, "MEAN_MOTION_DDOT": 0}, "tle": {"line1": "1 33760U 93036H   25339.33258168  .00000567  00000+0  20516-3 0  9992", "line2": "2 33760  74.0317 295.0504 0019557  35.5072 115.7617 14.35664545880183"}}, "geometry": {"type": "Point", "coordinates": [80.55005840404809, 62.65428040260072]}}, {"type": "Feature", "properties": {"norad_id": 33761, "name": "COSMOS 2251 DEB", "group": "cosmos-2251-debris", "lat": -47.40605658863776, "lon": 103.15453226234328, "alt_km": 763.8444399137616, "timestamp": "2025-12-05T19:30:25.959278+00:00", "meta": {"OBJECT_NAME": "COSMOS 2251 DEB", "OBJECT_ID": "1993-036J", "EPOCH": "2025-12-04T21:04:01.127712", "MEAN_MOTION": 14.42504735, "ECCENTRICITY": 0.0022795, "INCLINATION": 74.037, "RA_OF_ASC_NODE": 266.7483, "ARG_OF_PERICENTER": 348.175, "MEAN_ANOMALY": 68.3837, "EPHEMERIS_TYPE": 0, "CLASSIFICATION_TYPE": "U", "NORAD_CAT_ID": 33761, "ELEMENT_SET_NO": 999, "REV_AT_EPOCH": 88121, "BSTAR": 0.0010906, "MEAN_MOTION_DOT": 3.601e-05, "MEAN_MOTION_DDOT": 0}, "tle": {"line1": "1 33761U 93036J   25338.87779083  .00003601  00000+0  10906-2 0  9998", "line2": "2 33761  74.0370 266.7483 0022795 348.1750  68.3837 14.42504735881212"}}, "geometry": {"type": "Point", "coordinates": [103.15453226234328, -47.40605658863776]}}, {"type": "Feature", "properties": {"norad_id": 33762, "name": "COSMOS 2251 DEB", "group": "cosmos-2251-debris", "lat": 71.03160275434517, "lon": 86.33233596651579, "alt_km": 769.4124649804935, "timestamp": "2025-12-05T19:30:25.959290+00:00", "meta": {"OBJECT_NAME": "COSMOS 2251 DEB", "OBJECT_ID": "1993-036K", "EPOCH": "2025-12-05T07:50:42.344736", "MEAN_MOTION": 14.33660112, "ECCENTRICITY": 0.00147039, "INCLINATION": 74.0413, "RA_OF_ASC_NODE": 323.58, "ARG_OF_PERICENTER": 27.2501, "MEAN_ANOMALY": 86.0231, "EPHEMERIS_TYPE": 0, "CLASSIFICATION_TYPE": "U", "NORAD_CAT_ID": 33762, "ELEMENT_SET_NO": 999, "REV_AT_EPOCH": 87941, "BSTAR": 9.1401128e-05, "MEAN_MOTION_DOT": 2.28e-06, "MEAN_MOTION_DDOT": 0}, "tle": {"line1": "1 33762U 93036K   25339.32687899  .00000228  00000+0  91401-4 0  9996", "line2": "2 33762  74.0413 323.5800 0014703  27.2501  86.0231 14.33660112879411"}}, "geometry": {"type": "Point", "coordinates": [86.33233596651579, 71.03160275434517]}}, {"type": "Feature", "properties": {"norad_id": 33764, "name": "COSMOS 2251 DEB", "group": "cosmos-2251-debris", "lat": 73.4280045802526, "lon": 31.273439042211788, "alt_km": 768.8187783362755, "timestamp": "2025-12-05T19:30:25.959301+00:00", "meta": {"OBJECT_NAME": "COSMOS 2251 DEB", "OBJECT_ID": "1993-036M", "EPOCH": "2025-12-05T08:08:50.697888", "MEAN_MOTION": 14.39484318, "ECCENTRICITY": 0.00242185, "INCLINATION": 74.0333, "RA_OF_ASC_NODE": 286.322, "ARG_OF_PERICENTER": 253.2835, "MEAN_ANOMALY": 269.425, "EPHEMERIS_TYPE": 0, "CLASSIFICATION_TYPE": "U", "NORAD_CAT_ID": 33764, "ELEMENT_SET_NO": 999, "REV_AT_EPOCH": 88050, "BSTAR": 0.00067069589, "MEAN_MOTION_DOT": 2.071e-05, "MEAN_MOTION_DDOT": 0}, "tle": {"line1": "1 33764U 93036M   25339.33947567  .00002071  00000+0  67070-3 0  9992", "line2": "2 33764  74.0333 286.3220 0024218 253.2835 269.4250 14.39484318880507"}}, "geometry": {"type": "Point", "coordinates": [31.273439042211788, 73.4280045802526]}}, {"type": "Feature", "properties": {"norad_id": 33765, "name": "COSMOS 2251 DEB", "group": "cosmos-2251-debris", "lat": -23.32234068340395, "lon": -179.6800667900533, "alt_km": 516.4284309811401, "timestamp": "2025-12-05T19:30:25.959312+00:00", "meta": {"OBJECT_NAME": "COSMOS 2251 DEB", "OBJECT_ID": "1993-036N", "EPOCH": "2025-12-05T07:39:37.215936", "MEAN_MOTION": 15.09306601, "ECCENTRICITY": 0.00672088, "INCLINATION": 74.0103, "RA_OF_ASC_NODE": 188.4404, "ARG_OF_PERICENTER": 281.978, "MEAN_ANOMALY": 252.2014, "EPHEMERIS_TYPE": 0, "CLASSIFICATION_TYPE": "U", "NORAD_CAT_ID": 33765, "ELEMENT_SET_NO": 999, "REV_AT_EPOCH": 89506, "BSTAR": 0.0033940439, "MEAN_MOTION_DOT": 0.0005747, "MEAN_MOTION_DDOT": 0}, "tle": {"line1": "1 33765U 93036N   25339.31918074  .00057470  00000+0  33940-2 0  9993", "line2": "2 33765  74.0103 188.4404 0067208 281.9780 252.2014 15.09306601895063"}}, "geometry": {"type": "Point", "coordinates": [-179.6800667900533, -23.32234068340395]}}, {"type": "Feature", "properties": {"norad_id": 33766, "name": "COSMOS 2251 DEB", "group": "cosmos-2251-debris", "lat": -64.34744014998367, "lon": 3.728825175036582, "alt_km": 792.5266513963898, "timestamp": "2025-12-05T19:30:25.959323+00:00", "meta": {"OBJECT_NAME": "COSMOS 2251 DEB", "OBJECT_ID": "1993-036P", "EPOCH": "2025-12-04T22:15:54.874944", "MEAN_MOTION": 14.34899715, "ECCENTRICITY": 0.0063773, "INCLINATION": 74.1848, "RA_OF_ASC_NODE": 149.1645, "ARG_OF_PERICENTER": 354.7304, "MEAN_ANOMALY": 5.3169, "EPHEMERIS_TYPE": 0, "CLASSIFICATION_TYPE": "U", "NORAD_CAT_ID": 33766, "ELEMENT_SET_NO": 999, "REV_AT_EPOCH": 87633, "BSTAR": 0.0010023, "MEAN_MOTION_DOT": 2.891e-05, "MEAN_MOTION_DDOT": 0}, "tle": {"line1": "1 33766U 93036P   25338.92771846  .00002891  00000+0  10023-2 0  9998", "line2": "2 33766  74.1848 149.1645 0063773 354.7304   5.3169 14.34899715876333"}}, "geometry": {"type": "Point", "coordinates": [3.728825175036582, -64.34744014998367]}}, {"type": "Feature", "properties": {"norad_id": 33768, "name": "COSMOS 2251 DEB", "group": "cosmos-2251-debris", "lat": -71.76603305415748, "lon": 170.93591717495252, "alt_km": 1138.2970494903138, "timestamp": "2025-12-05T19:30:25.959335+00:00", "meta": {"OBJECT_NAME": "COSMOS 2251 DEB", "OBJECT_ID": "1993-036R", "EPOCH": "2025-12-05T04:44:14.311968", "MEAN_MOTION": 13.58445141, "ECCENTRICITY": 0.03659347, "INCLINATION": 74.0687, "RA_OF_ASC_NODE": 232.039, "ARG_OF_PERICENTER": 31.4405, "MEAN_ANOMALY": 123.0069, "EPHEMERIS_TYPE": 0, "CLASSIFICATION_TYPE": "U", "NORAD_CAT_ID": 33768, "ELEMENT_SET_NO": 999, "REV_AT_EPOCH": 83193, "BSTAR": 0.00062129865, "MEAN_MOTION_DOT": 6.8e-06, "MEAN_MOTION_DDOT": 0}, "tle": {"line1": "1 33768U 93036R   25339.19738787  .00000680  00000+0  62130-3 0  9998", "line2": "2 33768  74.0687 232.0390 0365934  31.4405 123.0069 13.58445141831938"}}, "geometry": {"type": "Point", "coordinates": [170.93591717495252, -71.76603305415748]}}]}